INTELSAT 902 (IS-902)   
1 26900U 01039A   26194.55106729 -.00000293  00000+0  00000+0 0  9990
2 26900   6.1812  71.4591 0004414  38.1703 330.0689  1.00270360 90961
INTELSAT 904 (IS-904)   
1 27380U 02007A   26194.98249714 -.00000237  00000+0  00000+0 0  9996
2 27380   6.9846  68.8591 0005369  24.8035 160.4175  1.00270906 52036
DIRECTV 5 (TEMPO 1)     
1 27426U 02023A   26195.10954083 -.00000067  00000+0  00000+0 0  9993
2 27426   4.9443  74.9732 0003047  44.9042 101.4190  1.00271184 88394
INTELSAT 905 (IS-905)   
1 27438U 02027A   26195.21225685  .00000082  00000+0  00000+0 0  9997
2 27438   6.8190  69.4707 0003457  47.1178 114.6908  1.00271598 51637
GALAXY 3C (G-3C)        
1 27445U 02030A   26195.11257419 -.00000162  00000+0  00000+0 0  9998
2 27445   3.8010  77.6250 0001509  36.6976 123.3507  1.00270708 46764
INTELSAT 906 (IS-906)   
1 27513U 02041A   26195.14401507  .00000002  00000+0  00000+0 0  9990
2 27513   5.8685  72.5882 0003849  23.6450 311.7676  1.00272931 87290
GALAXY 13 (HORIZONS-1)  
1 27954U 03044A   26195.20705008  .00000125  00000+0  00000+0 0  9999
2 27954   1.4868  83.5189 0002155  27.9050 105.1694  1.00270845 46841
INTELSAT 10-02          
1 28358U 04022A   26194.98850939 -.00000017  00000+0  00000+0 0  9994
2 28358   0.0545 249.0819 0000498 341.5112  56.1193  1.00271012 80820
DIRECTV 8               
1 28659U 05019A   26195.21912051  .00000000  00000+0  00000+0 0  9997
2 28659   0.0187  45.3574 0003080  81.5198 125.0502  1.00270609 77340
GALAXY 28 (G-28)        
1 28702U 05022A   26195.12590163 -.00000209  00000+0  00000+0 0  9998
2 28702   3.3657  78.6009 0002546  23.4428 208.1735  1.00272757 52245
GALAXY 16 (G-16)        
1 29236U 06023A   26195.20374189 -.00000133  00000+0  00000+0 0  9996
2 29236   0.0088 141.5410 0002522 344.3008 140.5713  1.00271068 73241
DIRECTV 9S              
1 29494U 06043A   26195.11127419 -.00000122  00000+0  00000+0 0  9994
2 29494   2.4880  80.5772 0004997  33.8250 116.4301  1.00270987 51658
GALAXY 17 (G-17)        
1 31307U 07016B   26195.16978367 -.00000215  00000+0  00000+0 0  9995
2 31307   3.0375  79.5592 0003533  33.2156 155.3567  1.00271994 70074
INTELSAT 11 (IS-11)     
1 32253U 07044B   26195.06154682 -.00000140  00000+0  00000+0 0  9999
2 32253   3.6331  78.3424 0004146 100.6739 142.6437  0.99051865 68714
HORIZONS-2              
1 32388U 07063B   26195.19627769 -.00000262  00000+0  00000+0 0  9999
2 32388   2.6695  80.2943 0003535  19.6861 188.9307  1.00269502 68080
DIRECTV 11              
1 32729U 08013A   26194.61262014 -.00000130  00000+0  00000+0 0  9992
2 32729   0.0109 269.6737 0000116 300.2834 202.8868  1.00271811 45850
GALAXY 18 (G-18)        
1 32951U 08024A   26195.19422894  .00000019  00000+0  00000+0 0  9994
2 32951   0.0174  45.3789 0002830  81.0156 112.5803  1.00271161 46126
GALAXY 19 (G-19)        
1 33376U 08045A   26195.11214086 -.00000145  00000+0  00000+0 0  9994
2 33376   0.0605 249.4827 0002315 235.4901 110.3797  1.00272802 65175
FM-5                    
1 35493U 09034A   26194.90035759 -.00000205  00000+0  00000+0 0  9996
2 35493   0.0457 259.5714 0000758  86.9227 183.2440  1.00271245 46913
INTELSAT 14 (IS-14)     
1 36097U 09064A   26195.12243494 -.00000280  00000+0  00000+0 0  9995
2 36097   0.0234 299.1117 0002174 183.1453 168.8091  1.00268919 60875
INTELSAT 15 (IS-15)     
1 36106U 09067A   26195.14817507 -.00000191  00000+0  00000+0 0  9994
2 36106   0.0170 315.7830 0002168 162.9633 311.7524  1.00268644 41492
DIRECTV 12              
1 36131U 09075A   26193.89907914 -.00000104  00000+0  00000+0 0  9997
2 36131   0.0059 118.1538 0000376 110.5275 283.0374  1.00271042 46817
INTELSAT 16 (IS-16)     
1 36397U 10006A   26195.19195934 -.00000251  00000+0  00000+0 0  9996
2 36397   0.0120  31.7531 0002307 105.7098 147.4910  1.00270255 59928
XM-5                    
1 37185U 10053A   26194.27598828 -.00000026  00000+0  00000+0 0  9991
2 37185   0.0648 265.0318 0001728 322.3275  47.9546  1.00270903 57741
INTELSAT 17 (IS-17)     
1 37238U 10065B   26195.14436174 -.00000008  00000+0  00000+0 0  9995
2 37238   0.0079 160.8988 0002562 323.4150 285.6588  1.00270500 53515
INTELSAT 28 (IS-28)     
1 37392U 11016A   26195.12503497 -.00000233  00000+0  00000+0 0  9994
2 37392   1.8736  82.2877 0003704  40.6462 182.3500  1.00271208 53559
INTELSAT 18 (IS-18)     
1 37834U 11056A   26195.16698183  .00000046  00000+0  00000+0 0  9991
2 37834   0.0148 346.4700 0001674 138.2925  47.3746  1.00270416 54081
INTELSAT 22 (IS-22)     
1 38098U 12011A   26195.14557507 -.00000065  00000+0  00000+0 0  9990
2 38098   0.0132  29.1034 0001849  92.7719 294.6365  1.00272331  7452
INTELSAT 19 (IS-19)     
1 38356U 12030A   26195.09292029 -.00000063  00000+0  00000+0 0  9995
2 38356   0.0150  46.4692 0003167  82.4553   2.4819  1.00271269 50724
INTELSAT 20 (IS-20)     
1 38740U 12043A   26195.14488174 -.00000031  00000+0  00000+0 0  9995
2 38740   0.0111  61.3079 0001326 111.3237 240.0384  1.00272807 51018
INTELSAT 21 (IS-21)     
1 38749U 12045A   26195.19052399 -.00000291  00000+0  00000+0 0  9995
2 38749   0.0563 254.8538 0001279 255.5602 152.2105  1.00263192 50797
